SENTINEL-6A             
1 46984U 20086A   26191.11788431 -.00000069  00000+0 -35327-4 0  9999
2 46984  66.0414  87.4266 0007814 269.9813  90.0306 12.80930082263265
SENTINEL-6B             
1 66514U 25264A   26191.11823223 -.00000069  00000+0 -35219-4 0  9992
2 66514  66.0414  87.5519 0007877 268.8168  91.1945 12.80930089 30101
