{"fetched_at":"2026-07-11T06:35:46.123Z","source":"https://celestrak.org/NORAD/elements/gp.php?NAME=SENTINEL&FORMAT=JSON","constellation":"sentinel-6","records":[{"OBJECT_NAME":"SENTINEL-6A","OBJECT_ID":"2020-086A","EPOCH":"2026-07-10T02:49:45.204384","CLASSIFICATION_TYPE":"U","MEAN_MOTION":12.80930082,"ECCENTRICITY":0.00078145,"INCLINATION":66.0414,"RA_OF_ASC_NODE":87.4266,"ARG_OF_PERICENTER":269.9813,"MEAN_ANOMALY":90.0306,"EPHEMERIS_TYPE":0,"NORAD_CAT_ID":46984,"ELEMENT_SET_NO":999,"REV_AT_EPOCH":26326,"BSTAR":-0.000035327187,"MEAN_MOTION_DOT":-6.9e-7,"MEAN_MOTION_DDOT":0},{"OBJECT_NAME":"SENTINEL-6B","OBJECT_ID":"2025-264A","EPOCH":"2026-07-10T02:50:15.264672","CLASSIFICATION_TYPE":"U","MEAN_MOTION":12.80930089,"ECCENTRICITY":0.00078778,"INCLINATION":66.0414,"RA_OF_ASC_NODE":87.5519,"ARG_OF_PERICENTER":268.8168,"MEAN_ANOMALY":91.1945,"EPHEMERIS_TYPE":0,"NORAD_CAT_ID":66514,"ELEMENT_SET_NO":999,"REV_AT_EPOCH":3010,"BSTAR":-0.000035218925,"MEAN_MOTION_DOT":-6.9e-7,"MEAN_MOTION_DDOT":0}]}
